IRIDIUM 126             
1 42809U 17039G   24274.51109798  .00000161  00000+0  50333-4 0  9997
2 42809  86.3923 254.6448 0002116  89.9982 270.1456 14.34217928380416
IRIDIUM 124             
1 42810U 17039H   24274.17354865  .00001560  00000+0  45771-3 0  9991
2 42810  86.4569 191.5870 0002540  90.9935 269.1557 14.43274430384969
IRIDIUM 128             
1 42811U 17039J   24274.50183632 -.00000020  00000+0 -14061-4 0  9992
2 42811  86.3908 286.1994 0002125  96.9561 263.1877 14.34217035380440
IRIDIUM 121             
1 42812U 17039K   24274.39059226  .00000247  00000+0  81300-4 0  9990
2 42812  86.3922 254.7185 0002221  87.8359 272.3091 14.34221542380270
IRIDIUM 133             
1 42955U 17061A   24274.39401312 -.00000117  00000+0 -48858-4 0  9999
2 42955  86.3910 286.3468 0002138  90.3659 269.7782 14.34216860365221
IRIDIUM 100             
1 42956U 17061B   24274.31789969 -.00000178  00000+0 -70599-4 0  9993
2 42956  86.3908 286.3119 0002111  94.5926 265.5510 14.34216274365217
IRIDIUM 122             
1 42957U 17061C   24274.56526227  .00000184  00000+0  58634-4 0  9998
2 42957  86.3910 286.2070 0002091  95.6955 264.4479 14.34217846365259
IRIDIUM 129             
1 42958U 17061D   24274.31155887  .00000014  00000+0 -19331-5 0  9997
2 42958  86.3909 286.3736 0001932  86.6978 273.4439 14.34217238365235
